NORAD_CAT_ID,OBJECT_NAME,OBJECT_TYPE,EPOCH,MEAN_MOTION,ECCENTRICITY,INCLINATION,RA_OF_ASC_NODE,ARG_OF_PERICENTER,MEAN_ANOMALY,BSTAR,MEAN_MOTION_DOT,MEAN_MOTION_DDOT,TLE_LINE0,TLE_LINE1,TLE_LINE2,SEMIMAJOR_AXIS,PERIOD,APOGEE,PERIGEE,DECAYED
49161.0,STARLINK-3080,PAYLOAD,2024-01-12 13:55:57,14.98327018,0.0002641,70.0006,119.0182,258.3948,101.6914,3.6783e-05,3.46e-06,0.0,0 STARLINK-3080,1 49161U 21082AH  24012.58053024  .00000346  00000-0  36783-4 0  9994,2 49161  70.0006 119.0182 0002641 258.3948 101.6914 14.98327018129153,6950.202,96.107,573.903,570.232,0.0
49161.0,STARLINK-3080,PAYLOAD,2024-01-12 17:08:13,14.98330356,0.0002689,70.0005,118.6812,262.8713,97.2141,7.0028e-05,7.43e-06,0.0,0 STARLINK-3080,1 49161U 21082AH  24012.71404769  .00000743  00000-0  70028-4 0  9996,2 49161  70.0005 118.6812 0002689 262.8713  97.2141 14.98330356129172,6950.192,96.107,573.926,570.188,0.0
49161.0,STARLINK-3080,PAYLOAD,2024-01-13 12:21:50,14.98333985,0.0002293,70.0008,116.6618,256.0492,104.0412,2.8461e-05,2.47e-06,0.0,0 STARLINK-3080,1 49161U 21082AH  24013.51516597  .00000247  00000-0  28461-4 0  9991,2 49161  70.0008 116.6618 0002293 256.0492 104.0412 14.98333985129299,6950.181,96.107,573.639,570.452,0.0
49161.0,STARLINK-3080,PAYLOAD,2024-01-13 13:57:58,14.98334423,0.0002478,70.0009,116.4936,262.5236,97.5642,6.3627e-05,6.66e-06,0.0,0 STARLINK-3080,1 49161U 21082AH  24013.58192514  .00000666  00000-0  63627-4 0  9995,2 49161  70.0009 116.4936 0002478 262.5236  97.5642 14.98334423129305,6950.179,96.107,573.766,570.322,0.0
49161.0,STARLINK-3080,PAYLOAD,2024-01-13 17:10:13,14.98376751,0.0002356,70.0009,116.1569,258.3333,101.7562,-0.00065505,-7.909e-05,0.0,0 STARLINK-3080,1 49161U 21082AH  24013.71542967 -.00007909  00000-0 -65505-3 0  9996,2 49161  70.0009 116.1569 0002356 258.3333 101.7562 14.98376751129321,6950.048,96.104,573.551,570.276,0.0
49161.0,STARLINK-3080,PAYLOAD,2024-01-14 12:23:51,14.98323874,0.0002769,70.0,114.1363,266.4164,93.6678,3.4904e-05,3.23e-06,0.0,0 STARLINK-3080,1 49161U 21082AH  24014.51657366  .00000323  00000-0  34904-4 0  9996,2 49161  70.0000 114.1363 0002769 266.4164  93.6678 14.98323874129440,6950.212,96.107,574.001,570.152,0.0
49161.0,STARLINK-3080,PAYLOAD,2024-01-14 13:59:59,14.98324575,0.0002495,70.0008,113.9686,257.2048,102.8832,5.6378e-05,5.8e-06,0.0,0 STARLINK-3080,1 49161U 21082AH  24014.58333287  .00000580  00000-0  56378-4 0  9990,2 49161  70.0008 113.9686 0002495 257.2048 102.8832 14.98324575129453,6950.21,96.107,573.809,570.341,0.0
49161.0,STARLINK-3080,PAYLOAD,2024-01-14 15:36:07,14.98324303,0.0002429,70.0012,113.8009,253.754,106.3352,7.721e-05,8.28e-06,0.0,0 STARLINK-3080,1 49161U 21082AH  24014.65009224  .00000828  00000-0  77210-4 0  9992,2 49161  70.0012 113.8009 0002429 253.7540 106.3352 14.98324303129467,6950.211,96.107,573.764,570.387,0.0
49161.0,STARLINK-3080,PAYLOAD,2024-01-15 12:25:52,14.9833626,0.0002659,70.0005,111.6127,259.969,100.117,0.00010505,1.161e-05,0.0,0 STARLINK-3080,1 49161U 21082AH  24015.51796440  .00001161  00000-0  10505-3 0  9995,2 49161  70.0005 111.6127 0002659 259.9690 100.1170 14.98336260129594,6950.174,96.107,573.887,570.19,0.0
49161.0,STARLINK-3080,PAYLOAD,2024-01-15 14:01:59,14.98338442,0.0002542,70.0009,111.4447,254.9569,105.1309,0.00013261,1.49e-05,0.0,0 STARLINK-3080,1 49161U 21082AH  24015.58472186  .00001490  00000-0  13261-3 0  9997,2 49161  70.0009 111.4447 0002542 254.9569 105.1309 14.98338442129607,6950.167,96.106,573.799,570.265,0.0
49161.0,STARLINK-3080,PAYLOAD,2024-01-15 15:38:07,14.98341108,0.0002613,70.0007,111.2764,259.0924,100.9942,0.00014469,1.634e-05,0.0,0 STARLINK-3080,1 49161U 21082AH  24015.65148002  .00001634  00000-0  14469-3 0  9993,2 49161  70.0007 111.2764 0002613 259.0924 100.9942 14.98341108129615,6950.159,96.106,573.84,570.207,0.0
49161.0,STARLINK-3080,PAYLOAD,2024-01-16 12:27:54,14.98320152,0.0002584,70.0035,109.0918,213.9519,146.1475,0.00010193,1.123e-05,0.0,0 STARLINK-3080,1 49161U 21082AH  24016.51937575  .00001123  00000-0  10193-3 0  9993,2 49161  70.0035 109.0918 0002584 213.9519 146.1475 14.98320152129741,6950.223,96.108,573.884,570.292,0.0
49161.0,STARLINK-3080,PAYLOAD,2024-01-16 14:04:02,14.98318854,0.0002572,70.0024,108.9227,231.4169,128.676,4.916e-05,4.94e-06,0.0,0 STARLINK-3080,1 49161U 21082AH  24016.58613763  .00000494  00000-0  49160-4 0  9997,2 49161  70.0024 108.9227 0002572 231.4169 128.6760 14.98318854129752,6950.227,96.108,573.88,570.305,0.0
49161.0,STARLINK-3080,PAYLOAD,2024-01-16 15:40:10,14.98325097,0.0002821,70.0003,108.751,261.7607,98.3232,4.7905e-05,4.79e-06,0.0,0 STARLINK-3080,1 49161U 21082AH  24016.65289391  .00000479  00000-0  47905-4 0  9999,2 49161  70.0003 108.7510 0002821 261.7607  98.3232 14.98325097129767,6950.208,96.107,574.034,570.112,0.0
49161.0,STARLINK-3080,PAYLOAD,2024-01-17 10:53:46,14.98334416,0.0002973,70.0001,106.7308,265.0256,95.0563,5.3568e-05,5.46e-06,0.0,0 STARLINK-3080,1 49161U 21082AH  24017.45400912  .00000546  00000-0  53568-4 0  9999,2 49161  70.0001 106.7308 0002973 265.0256  95.0563 14.98334416129882,6950.179,96.107,574.111,569.978,0.0
49161.0,STARLINK-3080,PAYLOAD,2024-01-17 14:06:02,14.98339097,0.0002914,70.0001,106.3942,264.3802,95.7025,8.5489e-05,9.27e-06,0.0,0 STARLINK-3080,1 49161U 21082AH  24017.58752552  .00000927  00000-0  85489-4 0  9993,2 49161  70.0001 106.3942 0002914 264.3802  95.7025 14.98339097129909,6950.165,96.106,574.055,570.004,0.0
49161.0,STARLINK-3080,PAYLOAD,2024-01-17 15:42:10,14.98340833,0.0002959,70.0001,106.2257,265.5846,94.4975,9.8341e-05,1.081e-05,0.0,0 STARLINK-3080,1 49161U 21082AH  24017.65428423  .00001081  00000-0  98341-4 0  9991,2 49161  70.0001 106.2257 0002959 265.5846  94.4975 14.98340833129918,6950.159,96.106,574.081,569.968,0.0
49161.0,STARLINK-3080,PAYLOAD,2024-01-18 10:55:47,14.98329136,0.0002791,70.0006,104.2058,264.5233,95.5608,0.00021388,2.46e-05,0.0,0 STARLINK-3080,1 49161U 21082AH  24018.45541115  .00002460  00000-0  21388-3 0  9992,2 49161  70.0006 104.2058 0002791 264.5233  95.5608 14.98329136130036,6950.196,96.107,574.0,570.121,0.0
49161.0,STARLINK-3080,PAYLOAD,2024-01-18 14:08:03,14.98333088,0.0002833,70.0008,103.8695,268.3461,91.7373,0.00023992,2.771e-05,0.0,0 STARLINK-3080,1 49161U 21082AH  24018.58892851  .00002771  00000-0  23992-3 0  9990,2 49161  70.0008 103.8695 0002833 268.3461  91.7373 14.98333088130052,6950.183,96.107,574.017,570.079,0.0
49161.0,STARLINK-3080,PAYLOAD,2024-01-18 15:44:11,14.98334695,0.0002793,70.0008,103.7014,266.4801,93.6038,0.00025384,2.937e-05,0.0,0 STARLINK-3080,1 49161U 21082AH  24018.65568727  .00002937  00000-0  25384-3 0  9991,2 49161  70.0008 103.7014 0002793 266.4801  93.6038 14.98334695130063,6950.178,96.107,573.985,570.102,0.0
49161.0,STARLINK-3080,PAYLOAD,2024-01-19 10:57:47,14.98340133,0.0002505,70.0012,101.6833,248.2452,111.8441,0.00017544,2.001e-05,0.0,0 STARLINK-3080,1 49161U 21082AH  24019.45680190  .00002001  00000-0  17544-3 0  9990,2 49161  70.0012 101.6833 0002505 248.2452 111.8441 14.98340133130183,6950.162,96.106,573.768,570.286,0.0
49161.0,STARLINK-3080,PAYLOAD,2024-01-19 14:10:03,14.98340978,0.0002496,70.0023,101.3466,249.5079,110.5813,0.00017039,1.941e-05,0.0,0 STARLINK-3080,1 49161U 21082AH  24019.59032066  .00001941  00000-0  17039-3 0  9999,2 49161  70.0023 101.3466 0002496 249.5079 110.5813 14.98340978130201,6950.159,96.106,573.759,570.289,0.0
49161.0,STARLINK-3080,PAYLOAD,2024-01-19 15:46:11,14.98341648,0.0002452,70.0022,101.1769,256.3332,103.7554,0.00018019,2.058e-05,0.0,0 STARLINK-3080,1 49161U 21082AH  24019.65708028  .00002058  00000-0  18019-3 0  9993,2 49161  70.0022 101.1769 0002452 256.3332 103.7554 14.98341648130216,6950.157,96.106,573.726,570.318,0.0
49161.0,STARLINK-3080,PAYLOAD,2024-01-20 10:59:49,14.98330821,0.000267,70.0002,99.1561,266.092,93.9934,2.2658e-05,1.77e-06,0.0,0 STARLINK-3080,1 49161U 21082AH  24020.45820784  .00000177  00000-0  22658-4 0  9992,2 49161  70.0002  99.1561 0002670 266.0920  93.9934 14.98330821130339,6950.19,96.107,573.911,570.2,0.0
49161.0,STARLINK-3080,PAYLOAD,2024-01-20 14:12:05,14.983266,0.0002274,70.0013,98.8204,253.0897,107.0013,1.0256e-05,2.9e-07,0.0,0 STARLINK-3080,1 49161U 21082AH  24020.59173046  .00000029  00000-0  10256-4 0  9996,2 49161  70.0013  98.8204 0002274 253.0897 107.0013 14.98326600130357,6950.203,96.107,573.649,570.488,0.0
49161.0,STARLINK-3080,PAYLOAD,2024-01-21 06:13:26,14.98312195,0.0002695,70.0001,97.1363,257.3162,102.7696,0.00027489,3.187e-05,0.0,0 STARLINK-3080,1 49161U 21082AH  24021.25933310  .00003187  00000-0  27489-3 0  9991,2 49161  70.0001  97.1363 0002695 257.3162 102.7696 14.98312195130455,6950.248,96.108,573.986,570.24,0.0
49161.0,STARLINK-3080,PAYLOAD,2024-01-21 11:01:50,14.98327608,0.0002587,70.0006,96.632,257.9284,102.1585,-4.0335e-05,-5.74e-06,0.0,0 STARLINK-3080,1 49161U 21082AH  24021.45961098 -.00000574  00000-0 -40335-4 0  9992,2 49161  70.0006  96.6320 0002587 257.9284 102.1585 14.98327608130487,6950.2,96.107,573.863,570.267,0.0
49161.0,STARLINK-3080,PAYLOAD,2024-01-21 14:14:06,14.98328665,0.0002497,70.0005,96.2954,249.2948,110.7944,-6.9266e-06,-1.76e-06,0.0,0 STARLINK-3080,1 49161U 21082AH  24021.59312934 -.00000176  00000-0 -69266-5 0  9999,2 49161  70.0005  96.2954 0002497 249.2948 110.7944 14.98328665130507,6950.197,96.107,573.797,570.327,0.0
49161.0,STARLINK-3080,PAYLOAD,2024-01-22 06:15:26,14.98330191,0.0002665,70.0005,94.6122,258.767,101.3189,0.00014981,1.695e-05,0.0,0 STARLINK-3080,1 49161U 21082AH  24022.26072570  .00001695  00000-0  14981-3 0  9990,2 49161  70.0005  94.6122 0002665 258.7670 101.3189 14.98330191130605,6950.192,96.107,573.91,570.205,0.0
49161.0,STARLINK-3080,PAYLOAD,2024-01-22 11:03:50,14.98330375,0.0002666,70.0006,94.1073,257.8513,102.2347,0.00014797,1.673e-05,0.0,0 STARLINK-3080,1 49161U 21082AH  24022.46100610  .00001673  00000-0  14797-3 0  9990,2 49161  70.0006  94.1073 0002666 257.8513 102.2347 14.98330375130636,6950.192,96.107,573.91,570.204,0.0
